STARLINK-30069          
1 56834U 23079M   26067.48212902 -.00002416  00000+0 -80472-4 0  9995
2 56834  42.9986 110.4464 0000469 272.6695  87.4103 15.26726881152740
STARLINK-36515          
1 67430U 26005AC  26067.57094610  .00039239  00000+0  14270-2 0  9997
2 67430  42.9999 244.4472 0001614 259.2943 100.7727 15.27599080  8511
